IXPE                    
1 49954U 21121A   24201.58335648  .00008110  00000+0  59005-3 0  9990
2 49954   0.2294 152.6785 0008913  39.3625 273.1622 14.98626010  5749
